COSMOS 2433 (720)       
1 32275U 07052A   25308.14101435 -.00000015  00000+0  00000+0 0  9995
2 32275  65.7032 323.5029 0005950 244.1158 115.8725  2.13103996140268
COSMOS 2432 (719)       
1 32276U 07052B   25307.50771308 -.00000012  00000+0  00000+0 0  9994
2 32276  65.7191 323.6477 0010675 307.5157 231.2134  2.13103072140279
COSMOS 2434 (721)       
1 32393U 07065A   25306.63556488  .00000042  00000+0  00000+0 0  9993
2 32393  64.3147 199.5566 0003299  66.2406 109.6116  2.13101184138945
COSMOS 2436 (723)       
1 32395U 07065C   25306.69905839  .00000042  00000+0  00000+0 0  9999
2 32395  64.3230 199.6243 0017446   5.1116 352.7024  2.13099935138895
COSMOS 2456 (730)       
1 36111U 09070A   25306.66904252  .00000026  00000+0  00000+0 0  9994
2 36111  64.8784  78.7075 0001683 311.8003  46.5744  2.13103504123598
COSMOS 2457 (733)       
1 36112U 09070B   25308.10443126  .00000013  00000+0  00000+0 0  9990
2 36112  64.8641  78.5067 0005703 146.3271   2.7415  2.13100874123636
COSMOS 2460 (732)       
1 36402U 10007C   25304.62410883 -.00000002  00000+0  00000+0 0  9990
2 36402  65.5519 322.1966 0002980 251.2622 106.6618  2.13106174121856
COSMOS 2476 (744)       
1 37867U 11064A   25307.04375101  .00000027  00000+0  00000+0 0  9998
2 37867  65.1412  80.5140 0023077 231.2553 323.2531  2.13101338108943
COSMOS 2477 (745)       
1 37868U 11064B   25307.28548568  .00000025  00000+0  00000+0 0  9992
2 37868  65.1479  80.5830 0020165 231.5220 329.1680  2.13102774108947
COSMOS 2475 (743)       
1 37869U 11064C   25307.28586022  .00000025  00000+0  00000+0 0  9990
2 37869  65.1549  80.6025 0024925 246.9252 270.1879  2.13101476108950
COSMOS 2485 (747)       
1 39155U 13019A   25305.78873729  .00000041  00000+0  00000+0 0  9996
2 39155  65.2932  81.2436 0023556 227.1726 132.6259  2.13104293 97430
COSMOS 2492 (754)       
1 39620U 14012A   25308.09362271 -.00000015  00000+0  00000+0 0  9991
2 39620  65.4284 321.5821 0013663 307.8198  52.1034  2.13103115 90447
COSMOS 2500 (755)       
1 40001U 14032A   25307.32783351 -.00000010  00000+0  00000+0 0  9994
2 40001  65.3648 321.3735 0009119 215.8949 144.0931  2.13105890 88648
COSMOS 2501 (702K)      
1 40315U 14075A   25308.05627292  .00000056  00000+0  00000+0 0  9990
2 40315  63.6136 198.1647 0020453 206.5070 153.4677  2.13101268 85055
COSMOS 2514 (751)       
1 41330U 16008A   25308.04022742 -.00000014  00000+0  00000+0 0  9999
2 41330  65.1550 320.7302 0013251 217.8045 142.1477  2.13102611 75826
COSMOS 2522 (752)       
1 42939U 17055A   25307.87867850  .00000053  00000+0  00000+0 0  9997
2 42939  64.0756 199.5523 0007375 231.4488 128.5616  2.13101886 63179
COSMOS 2527 (756)       
1 43508U 18053A   25307.83927948  .00000022  00000+0  00000+0 0  9996
2 43508  65.4522  81.4314 0008057 217.2810 142.6496  2.13102085 57475
COSMOS 2529 (757)       
1 43687U 18086A   25307.93686596  .00000052  00000+0  00000+0 0  9995
2 43687  64.2916 200.1992 0008352 256.1500 103.8329  2.13101883 54482
COSMOS 2534 (758)       
1 44299U 19030A   25305.88841492  .00000034  00000+0  00000+0 0  9995
2 44299  64.3651 200.2690 0010179 281.6979  81.1892  2.13101982 50083
COSMOS 2544 (759)       
1 44850U 19088A   25306.84527873  .00000031  00000+0  00000+0 0  9999
2 44850  65.4391  81.2922 0012653 246.2415 113.6170  2.13101861 45894
COSMOS 2545 (760)       
1 45358U 20018A   25307.97979578 -.00000016  00000+0  00000+0 0  9990
2 45358  64.4912 320.3300 0012363 244.7233 115.1930  2.13102402 43860
COSMOS 2547 (705K)      
1 46805U 20075A   25303.94405731  .00000019  00000+0  00000+0 0  9991
2 46805  64.5957 200.1251 0007002 233.7564 126.2421  2.13099824 39021
COSMOS 2557 (706K)      
1 52984U 22075A   25303.17119515 -.00000009  00000+0  00000+0 0  9995
2 52984  64.4329 322.5844 0013724 273.4662  86.4294  2.13102031 25815
COSMOS 2559 (707K)      
1 54031U 22130A   25308.15213728 -.00000018  00000+0  00000+0 0  9996
2 54031  64.4030 322.4998 0012676 192.3376 167.6783  2.13101392 23894
COSMOS 2564 (761)       
1 54377U 22161A   25307.99646513  .00000053  00000+0  00000+0 0  9994
2 54377  64.7375 200.1854 0009294 211.9784 148.0412  2.13101958 22831
COSMOS 2569 (703K)      
1 57517U 23114A   25305.19456104  .00000043  00000+0  00000+0 0  9996
2 57517  65.1724  80.3171 0009080 288.1677  71.7318  2.13103825 17402
COSMOS 2584 (704K)      
1 63130U 25042A   25306.95804041  .00000028  00000+0  00000+0 0  9991
2 63130  64.9543  80.5007 0007153 207.2853 152.6677  2.13103099  5220
COSMOS 2596 (708K)      
1 65590U 25206B   25308.20778221 -.00000018  00000+0  00000+0 0  9995
2 65590  64.7650 322.8146 0013806 302.6508  54.9595  2.13100546  1104
